{"type": "FeatureCollection", "features": [ {"type": "Feature", "properties": {"norad_id": 35480, "name": "IRIDIUM 33 DEB", "group": "iridium-33-debris", "lat": -49.930361166966115, "lon": 19.050384528575847, "alt_km": 742.5629576326555, "timestamp": "2025-12-16T05:49:09.598880+00:00", "meta": {"OBJECT_NAME": "IRIDIUM 33 DEB", "OBJECT_ID": "1997-051QA", "EPOCH": "2025-12-15T08:30:57.118464", "MEAN_MOTION": 14.49774703, "ECCENTRICITY": 0.00160032, "INCLINATION": 86.3571, "RA_OF_ASC_NODE": 23.7786, "ARG_OF_PERICENTER": 97.0457, "MEAN_ANOMALY": 263.2568, "EPHEMERIS_TYPE": 0, "CLASSIFICATION_TYPE": "U", "NORAD_CAT_ID": 35480, "ELEMENT_SET_NO": 999, "REV_AT_EPOCH": 87069, "BSTAR": 0.00045738518, "MEAN_MOTION_DOT": 1.785e-05, "MEAN_MOTION_DDOT": 0}, "tle": {"line1": "1 35480U 97051QA  25349.35482776  .00001785  00000+0  45739-3 0  9998", "line2": "2 35480  86.3571  23.7786 0016003  97.0457 263.2568 14.49774703870695"}}, "geometry": {"type": "Point", "coordinates": [19.050384528575847, -49.930361166966115]}}, {"type": "Feature", "properties": {"norad_id": 35484, "name": "IRIDIUM 33 DEB", "group": "iridium-33-debris", "lat": 12.600471324286293, "lon": -8.077882352351361, "alt_km": 574.012086310473, "timestamp": "2025-12-16T05:49:09.598889+00:00", "meta": {"OBJECT_NAME": "IRIDIUM 33 DEB", "OBJECT_ID": "1997-051QE", "EPOCH": "2025-12-13T07:15:48.307680", "MEAN_MOTION": 14.98714194, "ECCENTRICITY": 0.00237352, "INCLINATION": 86.3615, "RA_OF_ASC_NODE": 352.4822, "ARG_OF_PERICENTER": 123.3819, "MEAN_ANOMALY": 236.9688, "EPHEMERIS_TYPE": 0, "CLASSIFICATION_TYPE": "U", "NORAD_CAT_ID": 35484, "ELEMENT_SET_NO": 999, "REV_AT_EPOCH": 62024, "BSTAR": 0.0048114888, "MEAN_MOTION_DOT": 0.00058609, "MEAN_MOTION_DDOT": 0}, "tle": {"line1": "1 35484U 97051QE  25347.30264245  .00058609  00000+0  48115-2 0  9991", "line2": "2 35484  86.3615 352.4822 0023735 123.3819 236.9688 14.98714194620242"}}, "geometry": {"type": "Point", "coordinates": [-8.077882352351361, 12.600471324286293]}}, {"type": "Feature", "properties": {"norad_id": 35488, "name": "IRIDIUM 33 DEB", "group": "iridium-33-debris", "lat": -75.66576016827182, "lon": -75.30550387510124, "alt_km": 633.0074811193208, "timestamp": "2025-12-16T05:49:09.598899+00:00", "meta": {"OBJECT_NAME": "IRIDIUM 33 DEB", "OBJECT_ID": "1997-051QJ", "EPOCH": "2025-12-15T07:29:31.144128", "MEAN_MOTION": 14.8313163, "ECCENTRICITY": 0.00296024, "INCLINATION": 86.3246, "RA_OF_ASC_NODE": 299.6926, "ARG_OF_PERICENTER": 34.6907, "MEAN_ANOMALY": 325.6239, "EPHEMERIS_TYPE": 0, "CLASSIFICATION_TYPE": "U", "NORAD_CAT_ID": 35488, "ELEMENT_SET_NO": 999, "REV_AT_EPOCH": 88304, "BSTAR": 0.0010152976, "MEAN_MOTION_DOT": 8.367e-05, "MEAN_MOTION_DDOT": 0}, "tle": {"line1": "1 35488U 97051QJ  25349.31216602  .00008367  00000+0  10153-2 0  9999", "line2": "2 35488  86.3246 299.6926 0029602  34.6907 325.6239 14.83131630883043"}}, "geometry": {"type": "Point", "coordinates": [-75.30550387510124, -75.66576016827182]}}, {"type": "Feature", "properties": {"norad_id": 35616, "name": "IRIDIUM 33 DEB", "group": "iridium-33-debris", "lat": 67.31830987162556, "lon": -7.059621172405328, "alt_km": 615.9943703490162, "timestamp": "2025-12-16T05:49:09.598909+00:00", "meta": {"OBJECT_NAME": "IRIDIUM 33 DEB", "OBJECT_ID": "1997-051QN", "EPOCH": "2025-12-15T10:04:03.799488", "MEAN_MOTION": 14.81891461, "ECCENTRICITY": 0.00105912, "INCLINATION": 86.3547, "RA_OF_ASC_NODE": 344.5418, "ARG_OF_PERICENTER": 153.8991, "MEAN_ANOMALY": 206.2767, "EPHEMERIS_TYPE": 0, "CLASSIFICATION_TYPE": "U", "NORAD_CAT_ID": 35616, "ELEMENT_SET_NO": 999, "REV_AT_EPOCH": 87614, "BSTAR": 0.0010652988, "MEAN_MOTION_DOT": 8.463e-05, "MEAN_MOTION_DDOT": 0}, "tle": {"line1": "1 35616U 97051QN  25349.41948842  .00008463  00000+0  10653-2 0  9993", "line2": "2 35616  86.3547 344.5418 0010591 153.8991 206.2767 14.81891461876146"}}, "geometry": {"type": "Point", "coordinates": [-7.059621172405328, 67.31830987162556]}}, {"type": "Feature", "properties": {"norad_id": 35618, "name": "IRIDIUM 33 DEB", "group": "iridium-33-debris", "lat": -1.5847532651122194, "lon": 172.0755730400196, "alt_km": 741.674653079951, "timestamp": "2025-12-16T05:49:09.598920+00:00", "meta": {"OBJECT_NAME": "IRIDIUM 33 DEB", "OBJECT_ID": "1997-051QQ", "EPOCH": "2025-12-13T19:06:39.662496", "MEAN_MOTION": 14.52305973, "ECCENTRICITY": 0.00288889, "INCLINATION": 86.3427, "RA_OF_ASC_NODE": 353.0427, "ARG_OF_PERICENTER": 17.6332, "MEAN_ANOMALY": 342.5869, "EPHEMERIS_TYPE": 0, "CLASSIFICATION_TYPE": "U", "NORAD_CAT_ID": 35618, "ELEMENT_SET_NO": 999, "REV_AT_EPOCH": 65409, "BSTAR": 0.0005678553, "MEAN_MOTION_DOT": 2.341e-05, "MEAN_MOTION_DDOT": 0}, "tle": {"line1": "1 35618U 97051QQ  25347.79629239  .00002341  00000+0  56786-3 0  9997", "line2": "2 35618  86.3427 353.0427 0028888  17.6332 342.5869 14.52305973654095"}}, "geometry": {"type": "Point", "coordinates": [172.0755730400196, -1.5847532651122194]}}, {"type": "Feature", "properties": {"norad_id": 35620, "name": "IRIDIUM 33 DEB", "group": "iridium-33-debris", "lat": -13.059282412786573, "lon": -144.8643756527283, "alt_km": 784.585342207658, "timestamp": "2025-12-16T05:49:09.598930+00:00", "meta": {"OBJECT_NAME": "IRIDIUM 33 DEB", "OBJECT_ID": "1997-051QS", "EPOCH": "2025-12-15T21:31:52.254048", "MEAN_MOTION": 14.38162606, "ECCENTRICITY": 0.01401972, "INCLINATION": 86.3888, "RA_OF_ASC_NODE": 216.1206, "ARG_OF_PERICENTER": 248.5026, "MEAN_ANOMALY": 110.1177, "EPHEMERIS_TYPE": 0, "CLASSIFICATION_TYPE": "U", "NORAD_CAT_ID": 35620, "ELEMENT_SET_NO": 999, "REV_AT_EPOCH": 60011, "BSTAR": 0.0034337761, "MEAN_MOTION_DOT": 0.00011705, "MEAN_MOTION_DDOT": 0}, "tle": {"line1": "1 35620U 97051QS  25349.89713257  .00011705  00000+0  34338-2 0  9999", "line2": "2 35620  86.3888 216.1206 0140197 248.5026 110.1177 14.38162606600119"}}, "geometry": {"type": "Point", "coordinates": [-144.8643756527283, -13.059282412786573]}}, {"type": "Feature", "properties": {"norad_id": 35622, "name": "IRIDIUM 33 DEB", "group": "iridium-33-debris", "lat": -12.584239651226138, "lon": 82.72712555332028, "alt_km": 557.6381406315768, "timestamp": "2025-12-16T05:49:09.598940+00:00", "meta": {"OBJECT_NAME": "IRIDIUM 33 DEB", "OBJECT_ID": "1997-051QU", "EPOCH": "2025-12-14T12:14:43.972224", "MEAN_MOTION": 15.04969242, "ECCENTRICITY": 0.00054886, "INCLINATION": 86.2028, "RA_OF_ASC_NODE": 262.7313, "ARG_OF_PERICENTER": 323.1514, "MEAN_ANOMALY": 209.8665, "EPHEMERIS_TYPE": 0, "CLASSIFICATION_TYPE": "U", "NORAD_CAT_ID": 35622, "ELEMENT_SET_NO": 999, "REV_AT_EPOCH": 87386, "BSTAR": 0.0048535985, "MEAN_MOTION_DOT": 0.00069411, "MEAN_MOTION_DDOT": 0}, "tle": {"line1": "1 35622U 97051QU  25348.51023116  .00069411  00000+0  48536-2 0  9999", "line2": "2 35622  86.2028 262.7313 0005488 323.1514 209.8665 15.04969242873864"}}, "geometry": {"type": "Point", "coordinates": [82.72712555332028, -12.584239651226138]}}, {"type": "Feature", "properties": {"norad_id": 35628, "name": "IRIDIUM 33 DEB", "group": "iridium-33-debris", "lat": -86.1333714195941, "lon": -62.94414725078531, "alt_km": 672.3335677376217, "timestamp": "2025-12-16T05:49:09.598950+00:00", "meta": {"OBJECT_NAME": "IRIDIUM 33 DEB", "OBJECT_ID": "1997-051RA", "EPOCH": "2025-12-13T19:18:48.561408", "MEAN_MOTION": 14.67604958, "ECCENTRICITY": 0.00102895, "INCLINATION": 86.3579, "RA_OF_ASC_NODE": 8.6006, "ARG_OF_PERICENTER": 338.9594, "MEAN_ANOMALY": 21.1195, "EPHEMERIS_TYPE": 0, "CLASSIFICATION_TYPE": "U", "NORAD_CAT_ID": 35628, "ELEMENT_SET_NO": 999, "REV_AT_EPOCH": 86462, "BSTAR": 0.0015459634, "MEAN_MOTION_DOT": 8.811e-05, "MEAN_MOTION_DDOT": 0}, "tle": {"line1": "1 35628U 97051RA  25347.80472872  .00008811  00000+0  15460-2 0  9990", "line2": "2 35628  86.3579   8.6006 0010289 338.9594  21.1195 14.67604958864620"}}, "geometry": {"type": "Point", "coordinates": [-62.94414725078531, -86.1333714195941]}}, {"type": "Feature", "properties": {"norad_id": 35631, "name": "IRIDIUM 33 DEB", "group": "iridium-33-debris", "lat": -85.87761552244514, "lon": -42.340913292487684, "alt_km": 754.9917186911543, "timestamp": "2025-12-16T05:49:09.598960+00:00", "meta": {"OBJECT_NAME": "IRIDIUM 33 DEB", "OBJECT_ID": "1997-051RD", "EPOCH": "2025-12-15T08:42:47.316960", "MEAN_MOTION": 14.47318877, "ECCENTRICITY": 0.00191154, "INCLINATION": 86.3676, "RA_OF_ASC_NODE": 19.8463, "ARG_OF_PERICENTER": 110.0976, "MEAN_ANOMALY": 262.6147, "EPHEMERIS_TYPE": 0, "CLASSIFICATION_TYPE": "U", "NORAD_CAT_ID": 35631, "ELEMENT_SET_NO": 999, "REV_AT_EPOCH": 87235, "BSTAR": 0.00030975227, "MEAN_MOTION_DOT": 1.156e-05, "MEAN_MOTION_DDOT": 0}, "tle": {"line1": "1 35631U 97051RD  25349.36304765  .00001156  00000+0  30975-3 0  9996", "line2": "2 35631  86.3676  19.8463 0019115 110.0976 262.6147 14.47318877872351"}}, "geometry": {"type": "Point", "coordinates": [-42.340913292487684, -85.87761552244514]}}, {"type": "Feature", "properties": {"norad_id": 35680, "name": "IRIDIUM 33 DEB", "group": "iridium-33-debris", "lat": -85.97633919533959, "lon": -55.73938666924229, "alt_km": 721.3681980192723, "timestamp": "2025-12-16T05:49:09.598970+00:00", "meta": {"OBJECT_NAME": "IRIDIUM 33 DEB", "OBJECT_ID": "1997-051RJ", "EPOCH": "2025-12-14T08:38:54.081024", "MEAN_MOTION": 14.20954301, "ECCENTRICITY": 0.01504449, "INCLINATION": 86.1029, "RA_OF_ASC_NODE": 20.8049, "ARG_OF_PERICENTER": 273.3107, "MEAN_ANOMALY": 95.5624, "EPHEMERIS_TYPE": 0, "CLASSIFICATION_TYPE": "U", "NORAD_CAT_ID": 35680, "ELEMENT_SET_NO": 999, "REV_AT_EPOCH": 60724, "BSTAR": 0.0038932879, "MEAN_MOTION_DOT": 9.473e-05, "MEAN_MOTION_DDOT": 0}, "tle": {"line1": "1 35680U 97051RJ  25348.36034816  .00009473  00000+0  38933-2 0  9997", "line2": "2 35680  86.1029  20.8049 0150444 273.3107  95.5624 14.20954301607243"}}, "geometry": {"type": "Point", "coordinates": [-55.73938666924229, -85.97633919533959]}}]}